CCSDS_OMM_VERS = 2.0
CREATION_DATE  = 
ORIGINATOR     = 

OBJECT_NAME    = STARLINK-36307
OBJECT_ID      = 2026-057N
CENTER_NAME    = EARTH
REF_FRAME      = TEME
TIME_SYSTEM    = UTC
MEAN_ELEMENT_THEORY = SGP/SGP4

EPOCH          = 2026-03-25T22:00:00.999936
MEAN_MOTION    = 16.08231658
ECCENTRICITY   = .00009346
INCLINATION    = 97.2828
RA_OF_ASC_NODE = 207.7612
ARG_OF_PERICENTER = 73.9895
MEAN_ANOMALY   = 244.4182

EPHEMERIS_TYPE = 0
CLASSIFICATION_TYPE = U
NORAD_CAT_ID   = 68306
ELEMENT_SET_NO = 999
REV_AT_EPOCH   = 191
BSTAR          = -.96704909E-3
MEAN_MOTION_DOT = -.79998E-2
MEAN_MOTION_DDOT = .23923323E-3

CCSDS_OMM_VERS = 2.0
CREATION_DATE  = 
ORIGINATOR     = 

OBJECT_NAME    = STARLINK-36264
OBJECT_ID      = 2026-057P
CENTER_NAME    = EARTH
REF_FRAME      = TEME
TIME_SYSTEM    = UTC
MEAN_ELEMENT_THEORY = SGP/SGP4

EPOCH          = 2026-03-25T22:00:00.999936
MEAN_MOTION    = 16.08582512
ECCENTRICITY   = .00009074
INCLINATION    = 97.2827
RA_OF_ASC_NODE = 207.7623
ARG_OF_PERICENTER = 77.2126
MEAN_ANOMALY   = 244.2626

EPHEMERIS_TYPE = 0
CLASSIFICATION_TYPE = U
NORAD_CAT_ID   = 68307
ELEMENT_SET_NO = 999
REV_AT_EPOCH   = 197
BSTAR          = -.98236093E-3
MEAN_MOTION_DOT = -.830666E-2
MEAN_MOTION_DDOT = .2576858E-3

CCSDS_OMM_VERS = 2.0
CREATION_DATE  = 
ORIGINATOR     = 

OBJECT_NAME    = STARLINK-37138
OBJECT_ID      = 2026-057Q
CENTER_NAME    = EARTH
REF_FRAME      = TEME
TIME_SYSTEM    = UTC
MEAN_ELEMENT_THEORY = SGP/SGP4

EPOCH          = 2026-03-25T22:00:00.999936
MEAN_MOTION    = 16.08668052
ECCENTRICITY   = .00008807
INCLINATION    = 97.2823
RA_OF_ASC_NODE = 207.7624
ARG_OF_PERICENTER = 80.1166
MEAN_ANOMALY   = 242.3123

EPHEMERIS_TYPE = 0
CLASSIFICATION_TYPE = U
NORAD_CAT_ID   = 68308
ELEMENT_SET_NO = 999
REV_AT_EPOCH   = 164
BSTAR          = -.97814117E-3
MEAN_MOTION_DOT = -.831593E-2
MEAN_MOTION_DDOT = .25850323E-3

CCSDS_OMM_VERS = 2.0
CREATION_DATE  = 
ORIGINATOR     = 

OBJECT_NAME    = STARLINK-37149
OBJECT_ID      = 2026-057R
CENTER_NAME    = EARTH
REF_FRAME      = TEME
TIME_SYSTEM    = UTC
MEAN_ELEMENT_THEORY = SGP/SGP4

EPOCH          = 2026-03-25T22:00:00.999936
MEAN_MOTION    = 16.08790439
ECCENTRICITY   = .00009708
INCLINATION    = 97.2821
RA_OF_ASC_NODE = 207.7627
ARG_OF_PERICENTER = 71.3741
MEAN_ANOMALY   = 252.2612

EPHEMERIS_TYPE = 0
CLASSIFICATION_TYPE = U
NORAD_CAT_ID   = 68309
ELEMENT_SET_NO = 999
REV_AT_EPOCH   = 175
BSTAR          = -.97629269E-3
MEAN_MOTION_DOT = -.836481E-2
MEAN_MOTION_DDOT = .26174052E-3

CCSDS_OMM_VERS = 2.0
CREATION_DATE  = 
ORIGINATOR     = 

OBJECT_NAME    = STARLINK-37148
OBJECT_ID      = 2026-057S
CENTER_NAME    = EARTH
REF_FRAME      = TEME
TIME_SYSTEM    = UTC
MEAN_ELEMENT_THEORY = SGP/SGP4

EPOCH          = 2026-03-25T22:00:00.999936
MEAN_MOTION    = 16.09058460
ECCENTRICITY   = .00009201
INCLINATION    = 97.2822
RA_OF_ASC_NODE = 207.7639
ARG_OF_PERICENTER = 75.3858
MEAN_ANOMALY   = 250.7547

EPHEMERIS_TYPE = 0
CLASSIFICATION_TYPE = U
NORAD_CAT_ID   = 68310
ELEMENT_SET_NO = 999
REV_AT_EPOCH   = 186
BSTAR          = -.99179689E-3
MEAN_MOTION_DOT = -.864188E-2
MEAN_MOTION_DDOT = .27899189E-3

CCSDS_OMM_VERS = 2.0
CREATION_DATE  = 
ORIGINATOR     = 

OBJECT_NAME    = STARLINK-37140
OBJECT_ID      = 2026-057T
CENTER_NAME    = EARTH
REF_FRAME      = TEME
TIME_SYSTEM    = UTC
MEAN_ELEMENT_THEORY = SGP/SGP4

EPOCH          = 2026-03-25T22:00:00.999936
MEAN_MOTION    = 16.08932554
ECCENTRICITY   = .00009322
INCLINATION    = 97.2821
RA_OF_ASC_NODE = 207.7634
ARG_OF_PERICENTER = 68.9081
MEAN_ANOMALY   = 256.0508

EPHEMERIS_TYPE = 0
CLASSIFICATION_TYPE = U
NORAD_CAT_ID   = 68311
ELEMENT_SET_NO = 999
REV_AT_EPOCH   = 202
BSTAR          = -.97794096E-3
MEAN_MOTION_DOT = -.845441E-2
MEAN_MOTION_DDOT = .2674505E-3

CCSDS_OMM_VERS = 2.0
CREATION_DATE  = 
ORIGINATOR     = 

OBJECT_NAME    = STARLINK-36854
OBJECT_ID      = 2026-057U
CENTER_NAME    = EARTH
REF_FRAME      = TEME
TIME_SYSTEM    = UTC
MEAN_ELEMENT_THEORY = SGP/SGP4

EPOCH          = 2026-03-25T22:00:00.999936
MEAN_MOTION    = 16.09175578
ECCENTRICITY   = .00010377
INCLINATION    = 97.2822
RA_OF_ASC_NODE = 207.7646
ARG_OF_PERICENTER = 75.1544
MEAN_ANOMALY   = 252.1316

EPHEMERIS_TYPE = 0
CLASSIFICATION_TYPE = U
NORAD_CAT_ID   = 68312
ELEMENT_SET_NO = 999
REV_AT_EPOCH   = 181
BSTAR          = -.99738421E-3
MEAN_MOTION_DOT = -.875513E-2
MEAN_MOTION_DDOT = .28623374E-3

CCSDS_OMM_VERS = 2.0
CREATION_DATE  = 
ORIGINATOR     = 

OBJECT_NAME    = STARLINK-36815
OBJECT_ID      = 2026-057V
CENTER_NAME    = EARTH
REF_FRAME      = TEME
TIME_SYSTEM    = UTC
MEAN_ELEMENT_THEORY = SGP/SGP4

EPOCH          = 2026-03-25T22:00:00.999936
MEAN_MOTION    = 16.09317017
ECCENTRICITY   = .00009389
INCLINATION    = 97.2823
RA_OF_ASC_NODE = 207.7654
ARG_OF_PERICENTER = 71.0557
MEAN_ANOMALY   = 257.5971

EPHEMERIS_TYPE = 0
CLASSIFICATION_TYPE = U
NORAD_CAT_ID   = 68313
ELEMENT_SET_NO = 999
REV_AT_EPOCH   = 181
BSTAR          = -.99179045E-3
MEAN_MOTION_DOT = -.878492E-2
MEAN_MOTION_DDOT = .2885686E-3

CCSDS_OMM_VERS = 2.0
CREATION_DATE  = 
ORIGINATOR     = 

OBJECT_NAME    = STARLINK-37155
OBJECT_ID      = 2026-057W
CENTER_NAME    = EARTH
REF_FRAME      = TEME
TIME_SYSTEM    = UTC
MEAN_ELEMENT_THEORY = SGP/SGP4

EPOCH          = 2026-03-25T22:00:00.999936
MEAN_MOTION    = 16.09626856
ECCENTRICITY   = .00009453
INCLINATION    = 97.2821
RA_OF_ASC_NODE = 207.7665
ARG_OF_PERICENTER = 75.8288
MEAN_ANOMALY   = 255.6590

EPHEMERIS_TYPE = 0
CLASSIFICATION_TYPE = U
NORAD_CAT_ID   = 68314
ELEMENT_SET_NO = 999
REV_AT_EPOCH   = 186
BSTAR          = -.10057296E-2
MEAN_MOTION_DOT = -.908503E-2
MEAN_MOTION_DDOT = .30831649E-3

CCSDS_OMM_VERS = 2.0
CREATION_DATE  = 
ORIGINATOR     = 

OBJECT_NAME    = STARLINK-37150
OBJECT_ID      = 2026-057X
CENTER_NAME    = EARTH
REF_FRAME      = TEME
TIME_SYSTEM    = UTC
MEAN_ELEMENT_THEORY = SGP/SGP4

EPOCH          = 2026-03-25T22:00:00.999936
MEAN_MOTION    = 16.09491980
ECCENTRICITY   = .00009005
INCLINATION    = 97.2822
RA_OF_ASC_NODE = 207.7658
ARG_OF_PERICENTER = 82.0947
MEAN_ANOMALY   = 248.0713

EPHEMERIS_TYPE = 0
CLASSIFICATION_TYPE = U
NORAD_CAT_ID   = 68315
ELEMENT_SET_NO = 999
REV_AT_EPOCH   = 186
BSTAR          = -.10099742E-2
MEAN_MOTION_DOT = -.90448E-2
MEAN_MOTION_DDOT = .30525779E-3

CCSDS_OMM_VERS = 2.0
CREATION_DATE  = 
ORIGINATOR     = 

OBJECT_NAME    = STARLINK-37154
OBJECT_ID      = 2026-057Y
CENTER_NAME    = EARTH
REF_FRAME      = TEME
TIME_SYSTEM    = UTC
MEAN_ELEMENT_THEORY = SGP/SGP4

EPOCH          = 2026-03-25T22:00:00.999936
MEAN_MOTION    = 16.09941914
ECCENTRICITY   = .00009735
INCLINATION    = 97.2819
RA_OF_ASC_NODE = 207.7677
ARG_OF_PERICENTER = 66.3005
MEAN_ANOMALY   = 268.0416

EPHEMERIS_TYPE = 0
CLASSIFICATION_TYPE = U
NORAD_CAT_ID   = 68316
ELEMENT_SET_NO = 999
REV_AT_EPOCH   = 176
BSTAR          = -.10068621E-2
MEAN_MOTION_DOT = -.92805E-2
MEAN_MOTION_DDOT = .32202309E-3

CCSDS_OMM_VERS = 2.0
CREATION_DATE  = 
ORIGINATOR     = 

OBJECT_NAME    = STARLINK-37139
OBJECT_ID      = 2026-057Z
CENTER_NAME    = EARTH
REF_FRAME      = TEME
TIME_SYSTEM    = UTC
MEAN_ELEMENT_THEORY = SGP/SGP4

EPOCH          = 2026-03-25T22:00:00.999936
MEAN_MOTION    = 16.09795094
ECCENTRICITY   = .00009575
INCLINATION    = 97.2820
RA_OF_ASC_NODE = 207.7671
ARG_OF_PERICENTER = 76.9516
MEAN_ANOMALY   = 255.9783

EPHEMERIS_TYPE = 0
CLASSIFICATION_TYPE = U
NORAD_CAT_ID   = 68317
ELEMENT_SET_NO = 999
REV_AT_EPOCH   = 161
BSTAR          = -.10226554E-2
MEAN_MOTION_DOT = -.933651E-2
MEAN_MOTION_DDOT = .32500018E-3

