STARLINK-36307          
1 68306U 26057N   26084.91667824 -.00799980  23923-3 -96705-3 0  9992
2 68306  97.2828 207.7612 0000934  73.9895 244.4182 16.08231658  1919
STARLINK-36264          
1 68307U 26057P   26084.91667824 -.00830666  25769-3 -98236-3 0  9991
2 68307  97.2827 207.7623 0000907  77.2126 244.2626 16.08582512  1970
STARLINK-37138          
1 68308U 26057Q   26084.91667824 -.00831593  25850-3 -97814-3 0  9994
2 68308  97.2823 207.7624 0000880  80.1166 242.3123 16.08668052  1644
STARLINK-37149          
1 68309U 26057R   26084.91667824 -.00836481  26174-3 -97629-3 0  9990
2 68309  97.2821 207.7627 0000970  71.3741 252.2612 16.08790439  1757
STARLINK-37148          
1 68310U 26057S   26084.91667824 -.00864188  27899-3 -99180-3 0  9996
2 68310  97.2822 207.7639 0000920  75.3858 250.7547 16.09058460  1865
STARLINK-37140          
1 68311U 26057T   26084.91667824 -.00845441  26745-3 -97794-3 0  9996
2 68311  97.2821 207.7634 0000932  68.9081 256.0508 16.08932554  2028
STARLINK-36854          
1 68312U 26057U   26084.91667824 -.00875513  28623-3 -99738-3 0  9997
2 68312  97.2822 207.7646 0001037  75.1544 252.1316 16.09175578  1810
STARLINK-36815          
1 68313U 26057V   26084.91667824 -.00878492  28857-3 -99179-3 0  9995
2 68313  97.2823 207.7654 0000938  71.0557 257.5971 16.09317017  1811
STARLINK-37155          
1 68314U 26057W   26084.91667824 -.00908503  30832-3 -10057-2 0  9996
2 68314  97.2821 207.7665 0000945  75.8288 255.6590 16.09626856  1868
STARLINK-37150          
1 68315U 26057X   26084.91667824 -.00904480  30526-3 -10100-2 0  9996
2 68315  97.2822 207.7658 0000900  82.0947 248.0713 16.09491980  1866
STARLINK-37154          
1 68316U 26057Y   26084.91667824 -.00928050  32202-3 -10069-2 0  9993
2 68316  97.2819 207.7677 0000973  66.3005 268.0416 16.09941914  1762
STARLINK-37139          
1 68317U 26057Z   26084.91667824 -.00933651  32500-3 -10227-2 0  9994
2 68317  97.2820 207.7671 0000957  76.9516 255.9783 16.09795094  1617
